[{"OBJECT_NAME":"STARLINK-30355","OBJECT_ID":"2023-134G","EPOCH":"2026-03-09T22:00:01.999584","MEAN_MOTION":15.15158343,"ECCENTRICITY":0.00012731,"INCLINATION":42.9989,"RA_OF_ASC_NODE":195.8207,"ARG_OF_PERICENTER":271.7822,"MEAN_ANOMALY":333.1192,"EPHEMERIS_TYPE":0,"CLASSIFICATION_TYPE":"U","NORAD_CAT_ID":57777,"ELEMENT_SET_NO":999,"REV_AT_EPOCH":578,"BSTAR":0.004135665,"MEAN_MOTION_DOT":0.00079625,"MEAN_MOTION_DDOT":0},{"OBJECT_NAME":"OBJECT AD","OBJECT_ID":"2025-313AD","EPOCH":"2026-03-09T22:39:46.024416","MEAN_MOTION":15.21252673,"ECCENTRICITY":0.00138238,"INCLINATION":97.3979,"RA_OF_ASC_NODE":145.1661,"ARG_OF_PERICENTER":2.1254,"MEAN_ANOMALY":358.0038,"EPHEMERIS_TYPE":0,"CLASSIFICATION_TYPE":"U","NORAD_CAT_ID":67275,"ELEMENT_SET_NO":999,"REV_AT_EPOCH":1085,"BSTAR":0.00040975515,"MEAN_MOTION_DOT":9.111e-5,"MEAN_MOTION_DDOT":0}]
